ONEWEB-0113             
1 48050U 21025J   23016.55992886 -.00000247  00000+0 -71038-3 0  9997
2 48050  87.9020 208.1709 0001685  85.7125 274.4197 13.13468916 89801
ONEWEB-0112             
1 48051U 21025K   23016.54723236 -.00000204  00000+0 -59264-3 0  9998
2 48051  87.9017 208.1322 0001551  92.6023 267.5283 13.13471692 89810
ONEWEB-0156             
1 48052U 21025L   23016.48162660  .00000011  00000+0 -59521-5 0  9993
2 48052  87.9026 208.1686 0001438  90.7521 269.3773 13.13471262 89783
ONEWEB-0161             
1 48053U 21025M   23016.53030289  .00000136  00000+0  33850-3 0  9993
2 48053  87.9023 208.1409 0001295  91.7024 268.4254 13.13468399 89729
ONEWEB-0158             
1 48054U 21025N   23016.57051010 -.00000130  00000+0 -39149-3 0  9996
2 48054  87.9024 208.1587 0001873  86.1057 274.0286 13.13469094 89859
ONEWEB-0157             
1 48055U 21025P   23016.51761522  .00000352  00000+0  92916-3 0  9992
2 48055  87.9046 208.1322 0001258  96.4305 263.6967 13.13470193 89782
ONEWEB-0162             
1 48056U 21025Q   23016.55568723  .00001173  00000+0  31763-2 0  9999
2 48056  87.9016 208.1304 0001660  92.5187 267.6132 13.13461885 89766
ONEWEB-0155             
1 48057U 21025R   23016.57686674  .00000093  00000+0  22107-3 0  9991
2 48057  87.9020 208.1289 0001464  88.0650 272.0647 13.13471981 89906
ONEWEB-0149             
1 48058U 21025S   23016.52183234  .00000357  00000+0  94219-3 0  9997
2 48058  87.9019 208.1396 0001638 107.7207 252.4101 13.13471478 89700
ONEWEB-0148             
1 48059U 21025T   23016.56203610 -.00000249  00000+0 -71739-3 0  9997
2 48059  87.9023 208.1369 0001344 125.5171 234.6084 13.13471546 89830
ONEWEB-0160             
1 48060U 21025U   23016.57897390  .00000157  00000+0  39402-3 0  9991
2 48060  87.9021 208.1320 0002703  84.8445 275.2993 13.13470616 89789
ONEWEB-0163             
1 48061U 21025V   23016.56415696 -.00000195  00000+0 -56915-3 0  9998
2 48061  87.8957 208.1271 0001060  91.9092 268.2159 13.13469192 89901
ONEWEB-0159             
1 48062U 21025W   23016.55356749 -.00000402  00000+0 -11361-2 0  9997
2 48062  87.9023 208.1427 0001068 100.8297 259.2952 13.13469332 89823
ONEWEB-0164             
1 48063U 21025X   23016.53453624  .00000110  00000+0  26600-3 0  9993
2 48063  87.8934 208.1302 0001585  78.3933 281.7374 13.13471810 89806
ONEWEB-0167             
1 48064U 21025Y   23016.56522675 -.00000234  00000+0 -67522-3 0  9997
2 48064  87.9049 208.1248 0001163  96.6148 263.5113 13.13467927 89798
ONEWEB-0166             
1 48065U 21025Z   23016.58743132  .00000297  00000+0  77816-3 0  9997
2 48065  87.9018 208.1251 0001366 100.8647 259.2635 13.13471197 89870
ONEWEB-0151             
1 48066U 21025AA  23016.58955564  .00000317  00000+0  83177-3 0  9992
2 48066  87.9020 208.1258 0001588  79.5533 280.5775 13.13472815 89817
ONEWEB-0170             
1 48067U 21025AB  23016.51972400  .00000303  00000+0  79585-3 0  9997
2 48067  87.8958 208.1476 0002135  71.6666 288.4696 13.13472833 89761
ONEWEB-0168             
1 48068U 21025AC  23016.58108217  .00000162  00000+0  40862-3 0  9991
2 48068  87.9025 208.1603 0001398  93.0198 267.1091 13.13472502 89786
ONEWEB-0173             
1 48069U 21025AD  23016.57474291 -.00000015  00000+0 -75309-4 0  9993
2 48069  87.9023 208.1734 0001091  72.2136 287.9112 13.13468361 90022
ONEWEB-0171             
1 48070U 21025AE  23016.53242568  .00000114  00000+0  27815-3 0  9997
2 48070  87.9026 208.1410 0001384  96.9604 263.1683 13.13468714 89834
ONEWEB-0172             
1 48071U 21025AF  23016.59062735  .00000353  00000+0  93278-3 0  9991
2 48071  87.8982 208.1349 0001324  73.6668 286.4606 13.13470473 90731
ONEWEB-0174             
1 48072U 21025AG  23016.57262223 -.00000002  00000+0 -40432-4 0  9992
2 48072  87.9012 208.1438 0001520 114.7151 245.4136 13.13466001 90058
ONEWEB-0175             
1 48073U 21025AH  23016.52396216  .00000287  00000+0  75137-3 0  9990
2 48073  87.9018 208.1366 0001739  72.3466 287.7853 13.13469816 89707
ONEWEB-0177             
1 48074U 21025AJ  23016.53664936  .00000018  00000+0  13063-4 0  9992
2 48074  87.8975 208.1411 0000827  87.8833 272.2391 13.13469365 89891
ONEWEB-0178             
1 48075U 21025AK  23016.55462994 -.00000308  00000+0 -87759-3 0  9991
2 48075  87.9017 208.1340 0001220  94.0242 266.1027 13.13465820 89949
ONEWEB-0108             
1 48076U 21025AL  23016.59166662  .00000336  00000+0  88531-3 0  9997
2 48076  87.9017 208.1243 0001714  96.3117 263.8207 13.13471881 89876
ONEWEB-0169             
1 48077U 21025AM  23016.54511277 -.00000213  00000+0 -61894-3 0  9998
2 48077  87.8953 208.1313 0001694 103.1138 257.0180 13.13471355 88522
ONEWEB-0176             
1 48210U 21031A   23016.45546955 -.00000026  00000+0 -10398-3 0  9990
2 48210  87.9089 177.8545 0001267  95.0021 265.1253 13.14501346 84394
ONEWEB-0184             
1 48211U 21031B   23016.50622375  .00000209  00000+0  52920-3 0  9996
2 48211  87.9095 177.8180 0001859  53.3710 306.7591 13.14499625 84377
ONEWEB-0179             
1 48212U 21031C   23016.47450230 -.00000137  00000+0 -40468-3 0  9998
2 48212  87.9094 177.8234 0001122 103.4438 256.6817 13.14500999 84410
ONEWEB-0180             
1 48213U 21031D   23016.73668640  .00000251  00000+0  64243-3 0  9996
2 48213  87.9093 177.7683 0001253 102.0585 258.0685 13.14505543 84330
ONEWEB-0218             
1 48214U 21031E   23016.45336399  .00000022  00000+0  25581-4 0  9998
2 48214  87.9093 177.8343 0001408  39.6495 320.4738 13.14499543 84450
ONEWEB-0209             
1 48215U 21031F   23016.51890515 -.00000113  00000+0 -33824-3 0  9992
2 48215  87.9089 177.8520 0001305  99.7012 260.4265 13.14504786 84466
ONEWEB-0198             
1 48216U 21031G   23016.50411647  .00000349  00000+0  90603-3 0  9994
2 48216  87.9092 177.8663 0001003  72.7644 287.3595 13.14503336 84572
ONEWEB-0189             
1 48217U 21031H   23016.44068307  .00000283  00000+0  72846-3 0  9995
2 48217  87.9090 177.8653 0000926  78.8679 281.2555 13.14502657 84303
ONEWEB-0196             
1 48218U 21031J   23016.49564907  .00000088  00000+0  20215-3 0  9994
2 48218  87.9095 177.8393 0001391  88.2082 271.9207 13.14500664 84317
ONEWEB-0183             
1 48219U 21031K   23016.46814610 -.00000139  00000+0 -40896-3 0  9997
2 48219  87.9096 177.8647 0001415 102.6265 257.5023 13.14502751 84407
ONEWEB-0185             
1 48220U 21031L   23016.49668518  .00000028  00000+0  40878-4 0  9992
2 48220  87.9093 177.8355 0001274 101.0575 259.0698 13.14505081 84338
ONEWEB-0187             
1 48221U 21031M   23016.47133848 -.00000090  00000+0 -27700-3 0  9993
2 48221  87.9096 177.8655 0001261 101.9528 258.1743 13.14506506 84343
ONEWEB-0192             
1 48222U 21031N   23016.44490254  .00000114  00000+0  27436-3 0  9999
2 48222  87.9094 177.8167 0001350  87.3381 272.7903 13.14506093 84254
ONEWEB-0219             
1 48223U 21031P   23016.73034224  .00000221  00000+0  56149-3 0  9995
2 48223  87.9094 177.7979 0001235 102.2290 257.8978 13.14501813 84502
ONEWEB-0202             
1 48224U 21031Q   23016.48084792 -.00000090  00000+0 -27642-3 0  9995
2 48224  87.9093 177.8644 0001021  40.6325 319.4880 13.14501075 84449
ONEWEB-0204             
1 48225U 21031R   23016.46499968 -.00000133  00000+0 -39193-3 0  9991
2 48225  87.9091 177.8928 0002075 104.8336 255.3023 13.14503883 84332
ONEWEB-0205             
1 48226U 21031S   23016.49142731  .00000073  00000+0  16188-3 0  9998
2 48226  87.9095 177.8416 0001070  89.2817 270.8435 13.14504497 84356
ONEWEB-0206             
1 48227U 21031T   23016.46392142 -.00000101  00000+0 -30657-3 0  9990
2 48227  87.9094 177.8333 0001331 108.4582 251.6693 13.14505120 84309
ONEWEB-0182             
1 48228U 21031U   23016.45757572 -.00000094  00000+0 -28824-3 0  9996
2 48228  87.9093 177.9086 0001230 104.5691 255.5575 13.14505117 84512
ONEWEB-0186             
1 48229U 21031V   23016.47025939 -.00000116  00000+0 -34622-3 0  9992
2 48229  87.9096 177.8187 0001202  93.5439 266.5829 13.14500751 84460
ONEWEB-0181             
1 48230U 21031W   23016.67537280  .00000137  00000+0  33506-3 0  9994
2 48230  87.9095 177.8469 0001364  90.5294 269.5992 13.14504815 84356
ONEWEB-0188             
1 48231U 21031X   23016.48719696 -.00000042  00000+0 -14660-3 0  9994
2 48231  87.9090 177.8852 0001287  99.7868 260.3407 13.14505547 84229
ONEWEB-0220             
1 48232U 21031Y   23016.52525018  .00000062  00000+0  13225-3 0  9999
2 48232  87.9097 177.8370 0001048 108.0657 252.0587 13.14502541 84494
ONEWEB-0165             
1 48233U 21031Z   23016.47873753 -.00000133  00000+0 -39360-3 0  9995
2 48233  87.9096 177.8681 0001150  96.0407 264.0854 13.14503925 84444
ONEWEB-0199             
1 48234U 21031AA  23016.46181851 -.00000139  00000+0 -41050-3 0  9991
2 48234  87.9091 177.8464 0001221  95.9112 264.2157 13.14504709 84347
ONEWEB-0203             
1 48235U 21031AB  23016.45124637  .00000056  00000+0  11630-3 0  9997
2 48235  87.9096 177.8449 0001696  80.9278 279.2044 13.14505059 84350
ONEWEB-0197             
1 48236U 21031AC  23016.51468448 -.00000258  00000+0 -73112-3 0  9995
2 48236  87.9092 177.8420 0001396  92.5886 267.5403 13.14504977 84275
ONEWEB-0194             
1 48237U 21031AD  23016.48296604 -.00000039  00000+0 -13936-3 0  9990
2 48237  87.9091 177.8379 0001872  87.2565 272.8779 13.14502021 84444
ONEWEB-0193             
1 48238U 21031AE  23016.49988562  .00000218  00000+0  55347-3 0  9992
2 48238  87.9093 177.8452 0001386  86.0527 274.0761 13.14503733 84394
ONEWEB-0191             
1 48239U 21031AF  23016.73880277  .00000311  00000+0  80349-3 0  9998
2 48239  87.9092 177.7789 0001523  89.9731 270.1574 13.14505009 84283
ONEWEB-0195             
1 48240U 21031AG  23016.48823311 -.00000009  00000+0 -57644-4 0  9997
2 48240  87.9097 177.8234 0000996  81.4643 278.6600 13.14499831 84231
